NORAD_CAT_ID,OBJECT_NAME,OBJECT_TYPE,EPOCH,MEAN_MOTION,ECCENTRICITY,INCLINATION,RA_OF_ASC_NODE,ARG_OF_PERICENTER,MEAN_ANOMALY,BSTAR,MEAN_MOTION_DOT,MEAN_MOTION_DDOT,TLE_LINE0,TLE_LINE1,TLE_LINE2,SEMIMAJOR_AXIS,PERIOD,APOGEE,PERIGEE,DECAYED
53572.0,STARLINK-4555,PAYLOAD,2024-07-12 21:02:54,15.08841854,0.000133,53.2162,248.9071,89.6671,270.4473,0.00013379,1.842e-05,0.0,0 STARLINK-4555,1 53572U 22101AX  24194.87701605  .00001842  00000-0  13379-3 0  9993,2 53572  53.2162 248.9071 0001330  89.6671 270.4473 15.08841854105140,6917.875,95.437,540.66,538.82,0.0
53572.0,STARLINK-4555,PAYLOAD,2024-07-13 09:45:59,15.08843933,0.0001377,53.216,246.5285,91.6529,268.4621,5.0032e-05,5.08e-06,0.0,0 STARLINK-4555,1 53572U 22101AX  24195.40693664  .00000508  00000-0  50032-4 0  9994,2 53572  53.2160 246.5285 0001377  91.6529 268.4621 15.08843933105226,6917.868,95.437,540.686,538.781,0.0
53572.0,STARLINK-4555,PAYLOAD,2024-07-13 20:53:40,15.08855398,0.0001424,53.2165,244.4468,93.0274,267.0881,0.00016101,2.276e-05,0.0,0 STARLINK-4555,1 53572U 22101AX  24195.87060519  .00002276  00000-0  16101-3 0  9994,2 53572  53.2165 244.4468 0001424  93.0274 267.0881 15.08855398105295,6917.833,95.437,540.683,538.713,0.0
53572.0,STARLINK-4555,PAYLOAD,2024-07-14 03:15:13,15.08846086,0.0001814,53.2158,243.2578,90.8141,269.3059,0.00012124,1.642e-05,0.0,0 STARLINK-4555,1 53572U 22101AX  24196.13557235  .00001642  00000-0  12124-3 0  9997,2 53572  53.2158 243.2578 0001814  90.8141 269.3059 15.08846086105338,6917.862,95.437,540.982,538.472,0.0
53572.0,STARLINK-4555,PAYLOAD,2024-07-14 09:36:46,15.08838692,0.0001491,53.2165,242.0671,101.166,258.9499,3.4787e-05,2.66e-06,0.0,0 STARLINK-4555,1 53572U 22101AX  24196.40053736  .00000266  00000-0  34787-4 0  9995,2 53572  53.2165 242.0671 0001491 101.1660 258.9499 15.08838692105370,6917.884,95.438,540.781,538.718,0.0
53572.0,STARLINK-4555,PAYLOAD,2024-07-15 09:27:33,15.08838767,0.0001174,53.2149,237.6087,90.5455,269.5671,7.7041e-05,9.38e-06,0.0,0 STARLINK-4555,1 53572U 22101AX  24197.39413583  .00000938  00000-0  77041-4 0  9990,2 53572  53.2149 237.6087 0001174  90.5455 269.5671 15.08838767105524,6917.884,95.438,540.561,538.937,0.0
53572.0,STARLINK-4555,PAYLOAD,2024-07-16 02:56:48,15.08832962,0.0001273,53.2148,234.3378,93.3868,266.727,6.764e-05,7.89e-06,0.0,0 STARLINK-4555,1 53572U 22101AX  24198.12277926  .00000789  00000-0  67640-4 0  9999,2 53572  53.2148 234.3378 0001273  93.3868 266.7270 15.08832962105636,6917.902,95.438,540.648,538.886,0.0
53572.0,STARLINK-4555,PAYLOAD,2024-07-16 07:42:57,15.08828679,0.0001263,53.215,233.4456,93.0056,267.1081,2.7569e-05,1.51e-06,0.0,0 STARLINK-4555,1 53572U 22101AX  24198.32150403  .00000151  00000-0  27569-4 0  9990,2 53572  53.2150 233.4456 0001263  93.0056 267.1081 15.08828679105669,6917.915,95.438,540.654,538.906,0.0
53572.0,STARLINK-4555,PAYLOAD,2024-07-17 09:09:05,15.08859065,0.0001298,53.2156,228.6835,90.977,269.137,0.00024065,3.546e-05,0.0,0 STARLINK-4555,1 53572U 22101AX  24199.38131761  .00003546  00000-0  24065-3 0  9991,2 53572  53.2156 228.6835 0001298  90.9770 269.1370 15.08859065105823,6917.822,95.436,540.585,538.789,0.0
53572.0,STARLINK-4555,PAYLOAD,2024-07-18 10:35:17,15.08828688,0.0001305,53.2141,223.927,89.8507,270.2635,-0.00011355,-2.094e-05,0.0,0 STARLINK-4555,1 53572U 22101AX  24200.44117626 -.00002094  00000-0 -11355-3 0  9992,2 53572  53.2141 223.9270 0001305  89.8507 270.2635 15.08828688105983,6917.915,95.438,540.683,538.877,0.0
53572.0,STARLINK-4555,PAYLOAD,2024-07-18 18:32:13,15.08830967,0.0001369,53.214,222.4412,88.0007,272.1142,-0.00021401,-3.691e-05,0.0,0 STARLINK-4555,1 53572U 22101AX  24200.77237333 -.00003691  00000-0 -21401-3 0  9993,2 53572  53.2140 222.4412 0001369  88.0007 272.1142 15.08830967106034,6917.908,95.438,540.72,538.826,0.0
53572.0,STARLINK-4555,PAYLOAD,2024-07-19 10:26:04,15.08831325,0.0001366,53.2133,219.4671,85.7701,274.3447,0.00022021,3.218e-05,0.0,0 STARLINK-4555,1 53572U 22101AX  24201.43477996  .00003218  00000-0  22021-3 0  9990,2 53572  53.2133 219.4671 0001366  85.7701 274.3447 15.08831325106133,6917.907,95.438,540.717,538.827,0.0
53572.0,STARLINK-4555,PAYLOAD,2024-07-19 18:23:00,15.08832018,0.0001384,53.2131,217.9802,85.484,274.6311,0.00039051,5.931e-05,0.0,0 STARLINK-4555,1 53572U 22101AX  24201.76598363  .00005931  00000-0  39051-3 0  9993,2 53572  53.2131 217.9802 0001384  85.4840 274.6311 15.08832018106189,6917.905,95.438,540.727,538.812,0.0
53572.0,STARLINK-4555,PAYLOAD,2024-07-20 08:41:29,15.08844251,0.000142,53.2128,215.304,83.7664,276.349,0.0005432,8.369e-05,0.0,0 STARLINK-4555,1 53572U 22101AX  24202.36214382  .00008369  00000-0  54320-3 0  9990,2 53572  53.2128 215.3040 0001420  83.7664 276.3490 15.08844251106276,6917.867,95.437,540.715,538.75,0.0
53572.0,STARLINK-4555,PAYLOAD,2024-07-20 18:13:47,15.08850159,0.0001429,53.2126,213.5197,83.2732,276.8423,0.00054452,8.391e-05,0.0,0 STARLINK-4555,1 53572U 22101AX  24202.75958223  .00008391  00000-0  54452-3 0  9993,2 53572  53.2126 213.5197 0001429  83.2732 276.8423 15.08850159106339,6917.849,95.437,540.703,538.726,0.0
53572.0,STARLINK-4555,PAYLOAD,2024-07-21 05:21:29,15.08850673,0.0001471,53.213,211.438,83.8991,276.2169,0.00037359,5.664e-05,0.0,0 STARLINK-4555,1 53572U 22101AX  24203.22326019  .00005664  00000-0  37359-3 0  9995,2 53572  53.2130 211.4380 0001471  83.8991 276.2169 15.08850673106405,6917.848,95.437,540.73,538.695,0.0
53572.0,STARLINK-4555,PAYLOAD,2024-07-21 10:07:38,15.08863166,0.0001435,53.2125,210.5439,94.8248,265.2907,0.00066263,0.0001028,0.0,0 STARLINK-4555,1 53572U 22101AX  24203.42197504  .00010280  00000-0  66263-3 0  9998,2 53572  53.2125 210.5439 0001435  94.8248 265.2907 15.08863166106433,6917.81,95.436,540.667,538.682,0.0
53572.0,STARLINK-4555,PAYLOAD,2024-07-22 05:12:16,15.08843439,9.31e-05,53.2135,206.9773,90.3781,269.7318,6.8103e-05,7.96e-06,0.0,0 STARLINK-4555,1 53572U 22101AX  24204.21685757  .00000796  00000-0  68103-4 0  9995,2 53572  53.2135 206.9773 0000931  90.3781 269.7318 15.08843439106556,6917.87,95.437,540.379,539.091,0.0
53572.0,STARLINK-4555,PAYLOAD,2024-07-22 06:47:39,15.08840908,0.0001378,53.2141,206.6736,119.7997,240.3132,-2.6854e-06,-3.31e-06,0.0,0 STARLINK-4555,1 53572U 22101AX  24204.28309667 -.00000331  00000-0 -26854-5 0  9990,2 53572  53.2141 206.6736 0001378 119.7997 240.3132 15.08840908106568,6917.878,95.437,540.696,538.789,0.0
53572.0,STARLINK-4555,PAYLOAD,2024-07-23 03:27:40,15.08838924,0.0001274,53.214,202.8128,102.9754,257.1381,4.7718e-05,4.72e-06,0.0,0 STARLINK-4555,1 53572U 22101AX  24205.14422249  .00000472  00000-0  47718-4 0  9993,2 53572  53.2140 202.8128 0001274 102.9754 257.1381 15.08838924106691,6917.884,95.438,540.63,538.867,0.0
53572.0,STARLINK-4555,PAYLOAD,2024-07-24 04:53:51,15.0883455,0.0001304,53.214,198.0553,100.1472,259.9667,0.00023816,3.504e-05,0.0,0 STARLINK-4555,1 53572U 22101AX  24206.20406953  .00003504  00000-0  23816-3 0  9996,2 53572  53.2140 198.0553 0001304 100.1472 259.9667 15.08834550106856,6917.897,95.438,540.664,538.86,0.0
53572.0,STARLINK-4555,PAYLOAD,2024-07-24 06:29:14,15.08835182,0.0001305,53.2141,197.7581,100.1103,260.0036,0.00024175,3.561e-05,0.0,0 STARLINK-4555,1 53572U 22101AX  24206.27030975  .00003561  00000-0  24175-3 0  9992,2 53572  53.2141 197.7581 0001305 100.1103 260.0036 15.08835182106862,6917.895,95.438,540.663,538.857,0.0
53572.0,STARLINK-4555,PAYLOAD,2024-07-25 04:44:38,15.08843875,0.0001315,53.2147,193.5952,99.891,260.2231,0.00017731,2.535e-05,0.0,0 STARLINK-4555,1 53572U 22101AX  24207.19766646  .00002535  00000-0  17731-3 0  9995,2 53572  53.2147 193.5952 0001315  99.8910 260.2231 15.08843875107009,6917.869,95.437,540.643,538.824,0.0
53572.0,STARLINK-4555,PAYLOAD,2024-07-25 22:13:52,15.08842162,0.0001282,53.2146,190.3224,91.4096,268.7043,0.0001329,1.828e-05,0.0,0 STARLINK-4555,1 53572U 22101AX  24207.92630628  .00001828  00000-0  13290-3 0  9996,2 53572  53.2146 190.3224 0001282  91.4096 268.7043 15.08842162107115,6917.874,95.437,540.626,538.852,0.0
53572.0,STARLINK-4555,PAYLOAD,2024-07-26 04:35:25,15.08837798,0.0001312,53.2149,189.1333,93.6334,266.4808,4.9653e-05,5.02e-06,0.0,0 STARLINK-4555,1 53572U 22101AX  24208.19126854  .00000502  00000-0  49653-4 0  9998,2 53572  53.2149 189.1333 0001312  93.6334 266.4808 15.08837798107155,6917.887,95.438,540.66,538.844,0.0
53572.0,STARLINK-4555,PAYLOAD,2024-07-26 07:46:11,15.08841176,0.0001368,53.2149,188.5442,97.5497,262.5651,0.00010114,1.322e-05,0.0,0 STARLINK-4555,1 53572U 22101AX  24208.32374699  .00001322  00000-0  10114-3 0  9995,2 53572  53.2149 188.5442 0001368  97.5497 262.5651 15.08841176107173,6917.877,95.437,540.688,538.795,0.0
53572.0,STARLINK-4555,PAYLOAD,2024-07-26 15:43:07,15.08848202,0.0001376,53.2152,187.0538,87.4754,272.6396,0.00016443,2.331e-05,0.0,0 STARLINK-4555,1 53572U 22101AX  24208.65494264  .00002331  00000-0  16443-3 0  9994,2 53572  53.2152 187.0538 0001376  87.4754 272.6396 15.08848202107221,6917.855,95.437,540.672,538.768,0.0
53572.0,STARLINK-4555,PAYLOAD,2024-07-27 04:26:12,15.08842982,0.0001371,53.215,184.6742,92.5548,267.5601,6.3461e-05,7.22e-06,0.0,0 STARLINK-4555,1 53572U 22101AX  24209.18486521  .00000722  00000-0  63461-4 0  9995,2 53572  53.2150 184.6742 0001371  92.5548 267.5601 15.08842982107302,6917.871,95.437,540.685,538.788,0.0
53572.0,STARLINK-4555,PAYLOAD,2024-07-27 06:01:35,15.08843418,0.0001384,53.215,184.3768,94.0308,266.0842,7.1684e-05,8.53e-06,0.0,0 STARLINK-4555,1 53572U 22101AX  24209.25110506  .00000853  00000-0  71684-4 0  9991,2 53572  53.2150 184.3768 0001384  94.0308 266.0842 15.08843418107319,6917.87,95.437,540.692,538.778,0.0
53572.0,STARLINK-4555,PAYLOAD,2024-07-27 21:55:27,15.08839528,0.0001496,53.2157,181.4049,84.6373,275.4789,0.00014109,1.958e-05,0.0,0 STARLINK-4555,1 53572U 22101AX  24209.91350840  .00001958  00000-0  14109-3 0  9996,2 53572  53.2157 181.4049 0001496  84.6373 275.4789 15.08839528107419,6917.882,95.438,540.782,538.712,0.0
